STARLINK-1559           
1 46077U 20055BC  26068.23360559  .00042685  00000+0  14779-2 0  9995
2 46077  53.0254  76.0659 0004229  33.9710 326.1559 15.29461733309518
STARLINK-33795          
1 63457U 25069AA  26068.50561699  .00031012  00000+0  10547-2 0  9995
2 63457  53.1576 143.5282 0001658  67.7727 292.3450 15.30204388 53260
